HST                     
1 20580U 90037B   26191.48125174  .00004318  00000+0  13247-3 0  9990
2 20580  28.4733 281.3385 0002021  60.2686 299.8111 15.31028314792149
POLAR                   
1 23802U 96013A   26191.91433093  .00000231  00000+0  00000+0 0  9999
2 23802  79.8848 226.7705 6494278 208.2623  91.4110  1.29846082145166
SWAS                    
1 25560U 98071A   26191.40480925  .00001822  00000+0  11918-3 0  9999
2 25560  69.8941 167.6387 0008170 235.5968 124.4425 15.09729951500778
CXO                     
1 25867U 99040B   26193.17780626  .00000693  00000+0  00000+0 0  9994
2 25867  56.5436 115.9395 7801621 310.0685   0.3422  0.37804200 17418
XMM-NEWTON              
1 25989U 99066A   26193.28213418  .00000088  00000+0  00000+0 0  9997
2 25989  64.3559 282.6652 4668218  64.4827   0.1151  0.50124873 23131
TERRA                   
1 25994U 99068A   26192.18700884  .00000196  00000+0  48846-4 0  9996
2 25994  97.9443 240.7802 0003247 130.6045 266.1172 14.61121721413116
CLUSTER II-FM7 (SAMBA)  
1 26410U 00041A   26192.68021872  .00012833  00000+0  00000+0 0  9997
2 26410 149.8437  55.3938 9082311 272.8334 359.6328  0.44896530 20420
CLUSTER II-FM8 (TANGO)  
1 26464U 00045B   26190.94977411  .00011236  00000+0  00000+0 0  9992
2 26464 150.0622  56.2085 9086576 273.4793   2.2649  0.44423437 20413
ODIN                    
1 26702U 01007A   26191.83302878  .00264852  00000+0  99990-3 0  9998
2 26702  97.3742 234.4620 0004962 145.1996 214.9600 15.87057847393131
TIMED                   
1 26998U 01055B   26191.42456172  .00000719  00000+0  68807-4 0  9994
2 26998  74.0663 188.2284 0002144 305.4853  54.6131 14.95338576334296
CORIOLIS                
1 27640U 03001A   26192.01432382  .00000045  00000+0  41811-4 0  9993
2 27640  98.7132 198.5356 0014762 140.6168 219.6085 14.19950998217606
SORCE                   
1 27651U 03004A   26191.25065516  .00001905  00000+0  14655-3 0  9995
2 27651  39.9899 130.0780 0018386 221.1032 138.8377 15.03826851275376
MOST                    
1 27843U 03031D   26192.00536046  .00000027  00000+0  32492-4 0  9997
2 27843  98.7051 199.3991 0009822 177.0430 183.0807 14.21327160194097
SCISAT 1                
1 27858U 03036A   26190.78034802  .00000444  00000+0  61285-4 0  9999
2 27858  73.9302 126.4534 0007648 195.5821 164.5121 14.81474956234791
SWIFT                   
1 28485U 04047A   26192.21146972  .00044860  00000+0  33510-3 0  9990
2 28485  20.5532 359.2544 0001525 334.4494  25.5877 15.70831677190641
HINODE (SOLAR-B)        
1 29479U 06041A   26192.03128985  .00000358  00000+0  69892-4 0  9991
2 29479  98.0548 207.8324 0016693 208.0803 151.9503 14.68654917 58377
SHIJIAN-6 02A (SJ-6 02A)
1 29505U 06046A   26192.16623152  .00003406  00000+0  17478-3 0  9995
2 29505  97.6357 233.4144 0004564  73.6994 286.4740 15.17218430 75902
SHIJIAN-6 02B (SJ-6 02B)
1 29506U 06046B   26192.20549847  .00000638  00000+0  54038-4 0  9997
2 29506  97.7156 221.1157 0013894 349.7985  10.2955 15.01433013 74349
FGRST (GLAST)           
1 33053U 08029A   26191.79991928  .00002325  00000+0  79613-4 0  9997
2 33053  25.5830  40.5112 0007704 244.7015 115.2725 15.24060853999445
SDO                     
1 36395U 10005A   26190.29623794 -.00000089  00000+0  00000+0 0  9998
2 36395  34.6945  86.0076 0001880  60.2380 145.3020  1.00269380 60282
CRYOSAT 2               
1 36508U 10013A   26192.20356973  .00000122  00000+0  29672-4 0  9996
2 36508  92.0358 283.1402 0002334  98.1562 261.9910 14.51897430861560
X-SAT                   
1 37389U 11015C   26192.16549817  .00000044  00000+0  36206-4 0  9997
2 37389  98.3523 168.0480 0012696 273.9384  86.0345 14.25213213791095
GCOM-W1 (SHIZUKU)       
1 38337U 12025A   26192.06788287  .00000218  00000+0  58539-4 0  9994
2 38337  98.2025 132.2627 0001353  75.8420 350.7489 14.57087893752511
NUSTAR                  
1 38358U 12031A   26192.25001156  .00001377  00000+0  32110-4 0  9992
2 38358   6.0243 213.6198 0007144 109.8124   7.6720 15.09024668  1302
NEOSSAT                 
1 39089U 13009D   26191.97256400  .00000082  00000+0  43034-4 0  9991
2 39089  98.4187  11.4408 0011175 169.3900 190.7524 14.35834638700155
BRITE-AUSTRIA           
1 39091U 13009F   26190.98422785  .00000106  00000+0  50637-4 0  9999
2 39091  98.4005   9.8568 0010453 165.5592 194.5896 14.36551135700320
IRIS                    
1 39197U 13033A   26192.00326436  .00000590  00000+0  73762-4 0  9995
2 39197  97.9321  31.2052 0023116 239.4482 120.4452 14.85931581703913
HISAKI (SPRINT-A)       
1 39253U 13049A   26191.99072927  .00000080  00000+0  17602-4 0  9990
2 39253  29.7202  98.9881 0136948 209.8282 149.4426 13.55546483634659
CASSIOPE                
1 39265U 13055A   26192.15608149  .00023301 -54773-6  24967-3 0  9996
2 39265  80.9132  37.5641 0283886 341.5835  17.5275 15.27239419671329
STSAT-3                 
1 39422U 13066G   26192.14932212  .00001462  00000+0  11349-3 0  9993
2 39422  97.6193 161.6511 0008964 322.4854  37.5744 15.02874291687801
SWARM B                 
1 39451U 13067A   26192.15908044  .00002251  00000+0  79436-4 0  9992
2 39451  87.7453 335.0339 0002484  82.0120 278.1411 15.28700954686909
